[{"OBJECT_NAME":"TIANQI-17","OBJECT_ID":"2025-105B","EPOCH":"2026-03-09T16:13:53.676480","MEAN_MOTION":13.99116409,"ECCENTRICITY":0.0011901,"INCLINATION":44.9793,"RA_OF_ASC_NODE":104.4582,"ARG_OF_PERICENTER":269.8023,"MEAN_ANOMALY":90.1446,"EPHEMERIS_TYPE":0,"CLASSIFICATION_TYPE":"U","NORAD_CAT_ID":64059,"ELEMENT_SET_NO":999,"REV_AT_EPOCH":4126,"BSTAR":0.0001561646,"MEAN_MOTION_DOT":9.9e-7,"MEAN_MOTION_DDOT":0},{"OBJECT_NAME":"COSMOS 1677","OBJECT_ID":"1985-075A","EPOCH":"2026-03-09T17:30:22.458240","MEAN_MOTION":13.86695489,"ECCENTRICITY":0.00526019,"INCLINATION":64.6829,"RA_OF_ASC_NODE":207.8655,"ARG_OF_PERICENTER":22.617,"MEAN_ANOMALY":337.719,"EPHEMERIS_TYPE":0,"CLASSIFICATION_TYPE":"U","NORAD_CAT_ID":15986,"ELEMENT_SET_NO":999,"REV_AT_EPOCH":4409,"BSTAR":2.6906919e-5,"MEAN_MOTION_DOT":-6.0e-7,"MEAN_MOTION_DDOT":0}]
